start=new Date('2023-03-17T00:00:00.000Z').valueOf();
sats=[{"TIME_SYSTEM":"UTC","CLASSIFICATION_TYPE":"U","OBJECT_ID":"2022-099H","TLE_LINE2":"2 53472  97.6564 198.2921 0001881  99.3170 260.8267 15.01248058 32627","OBJECT_NAME":"STARLINK-4447","APOAPSIS":"564.354","TLE_LINE1":"1 53472U 22099H   23075.88527726 -.00003854  00000-0 -29575-3 0  9998","PERIAPSIS":"561.743","SEMIMAJOR_AXIS":"6941.184","REV_AT_EPOCH":"3262","BSTAR":"-0.00029575000000","EPOCH":"2023-03-16T21:14:47.955264","PERIOD":"95.920","GP_ID":"228284049","NORAD_CAT_ID":"53472","RCS_SIZE":"LARGE","FILE":"3862592","MEAN_MOTION":"15.01248058","ARG_OF_PERICENTER":"99.3170","REF_FRAME":"TEME","ECCENTRICITY":"0.00018810","EPHEMERIS_TYPE":"0","COUNTRY_CODE":"US","MEAN_MOTION_DOT":"-0.00003854","INCLINATION":"97.6564","SITE":"AFWTR","DECAY_DATE":null,"MEAN_ELEMENT_THEORY":"SGP4","ELEMENT_SET_NO":"999","MEAN_ANOMALY":"260.8267","CENTER_NAME":"EARTH","MEAN_MOTION_DDOT":"0.0000000000000","OBJECT_TYPE":"PAYLOAD","LAUNCH_DATE":"2022-08-12","RA_OF_ASC_NODE":"198.2921"},{"REF_FRAME":"TEME","ECCENTRICITY":"0.00015020","ARG_OF_PERICENTER":"112.9240","EPHEMERIS_TYPE":"0","MEAN_MOTION":"15.01248812","FILE":"3862592","GP_ID":"228284799","NORAD_CAT_ID":"53473","RCS_SIZE":"LARGE","PERIOD":"95.920","EPOCH":"2023-03-16T21:06:47.882304","LAUNCH_DATE":"2022-08-12","RA_OF_ASC_NODE":"198.2903","OBJECT_TYPE":"PAYLOAD","CENTER_NAME":"EARTH","MEAN_MOTION_DDOT":"0.0000000000000","ELEMENT_SET_NO":"999","DECAY_DATE":null,"MEAN_ELEMENT_THEORY":"SGP4","MEAN_ANOMALY":"247.2142","SITE":"AFWTR","INCLINATION":"97.6563","COUNTRY_CODE":"US","MEAN_MOTION_DOT":"0.00008246","TLE_LINE1":"1 53473U 22099J   23075.87972086  .00008246  00000-0  64603-3 0  9990","OBJECT_NAME":"STARLINK-4383","APOAPSIS":"564.089","TLE_LINE2":"2 53473  97.6563 198.2903 0001502 112.9240 247.2142 15.01248812 32626","OBJECT_ID":"2022-099J","TIME_SYSTEM":"UTC","CLASSIFICATION_TYPE":"U","BSTAR":"0.00064603000000","REV_AT_EPOCH":"3262","SEMIMAJOR_AXIS":"6941.181","PERIAPSIS":"562.004"},{"FILE":"3862582","EPOCH":"2023-03-16T22:32:27.376800","PERIOD":"95.920","RCS_SIZE":"LARGE","NORAD_CAT_ID":"53474","GP_ID":"228260276","MEAN_MOTION":"15.01246256","EPHEMERIS_TYPE":"0","ARG_OF_PERICENTER":"110.7771","ECCENTRICITY":"0.00024830","REF_FRAME":"TEME","INCLINATION":"97.6516","SITE":"AFWTR","COUNTRY_CODE":"US","MEAN_MOTION_DOT":"0.00007053","OBJECT_TYPE":"PAYLOAD","RA_OF_ASC_NODE":"198.3467","LAUNCH_DATE":"2022-08-12","DECAY_DATE":null,"MEAN_ELEMENT_THEORY":"SGP4","MEAN_ANOMALY":"249.3719","ELEMENT_SET_NO":"999","MEAN_MOTION_DDOT":"0.0000000000000","CENTER_NAME":"EARTH","OBJECT_ID":"2022-099K","TLE_LINE2":"2 53474  97.6516 198.3467 0002483 110.7771 249.3719 15.01246256 32875","TIME_SYSTEM":"UTC","CLASSIFICATION_TYPE":"U","TLE_LINE1":"1 53474U 22099K   23075.93920575  .00007053  00000-0  55331-3 0  9997","APOAPSIS":"564.778","OBJECT_NAME":"STARLINK-4445","PERIAPSIS":"561.331","SEMIMAJOR_AXIS":"6941.189","BSTAR":"0.00055331000000","REV_AT_EPOCH":"3287"},{"SEMIMAJOR_AXIS":"6941.198","PERIAPSIS":"561.638","REV_AT_EPOCH":"3332","BSTAR":"0.00029871000000","TIME_SYSTEM":"UTC","CLASSIFICATION_TYPE":"U","TLE_LINE2":"2 53475  97.6533 198.2867 0002053 109.6002 250.5444 15.01243515 33320","OBJECT_ID":"2022-099L","OBJECT_NAME":"STARLINK-4389","APOAPSIS":"564.488","TLE_LINE1":"1 53475U 22099L   23075.87787150  .00003778  00000-0  29871-3 0  9991","MEAN_MOTION_DOT":"0.00003778","COUNTRY_CODE":"US","SITE":"AFWTR","INCLINATION":"97.6533","CENTER_NAME":"EARTH","MEAN_MOTION_DDOT":"0.0000000000000","DECAY_DATE":null,"MEAN_ELEMENT_THEORY":"SGP4","MEAN_ANOMALY":"250.5444","ELEMENT_SET_NO":"999","LAUNCH_DATE":"2022-08-12","RA_OF_ASC_NODE":"198.2867","OBJECT_TYPE":"PAYLOAD","GP_ID":"228283299","RCS_SIZE":"LARGE","NORAD_CAT_ID":"53475","PERIOD":"95.920","EPOCH":"2023-03-16T21:04:08.097600","FILE":"3862592","ECCENTRICITY":"0.00020530","ARG_OF_PERICENTER":"109.6002","REF_FRAME":"TEME","EPHEMERIS_TYPE":"0","MEAN_MOTION":"15.01243515"},{"BSTAR":"0.00052441000000","REV_AT_EPOCH":"3262","PERIAPSIS":"562.122","SEMIMAJOR_AXIS":"6941.191","TLE_LINE1":"1 53476U 22099M   23075.88157557  .00006681  00000-0  52441-3 0  9990","APOAPSIS":"563.990","OBJECT_NAME":"STARLINK-4378","OBJECT_ID":"2022-099M","TLE_LINE2":"2 53476  97.6550 198.2901 0001346  92.7938 267.3440 15.01245736 32624","CLASSIFICATION_TYPE":"U","TIME_SYSTEM":"UTC","OBJECT_TYPE":"PAYLOAD","RA_OF_ASC_NODE":"198.2901","LAUNCH_DATE":"2022-08-12","MEAN_ELEMENT_THEORY":"SGP4","DECAY_DATE":null,"ELEMENT_SET_NO":"999","MEAN_ANOMALY":"267.3440","MEAN_MOTION_DDOT":"0.0000000000000","CENTER_NAME":"EARTH","INCLINATION":"97.6550","SITE":"AFWTR","MEAN_MOTION_DOT":"0.00006681","COUNTRY_CODE":"US","MEAN_MOTION":"15.01245736","EPHEMERIS_TYPE":"0","ARG_OF_PERICENTER":"92.7938","ECCENTRICITY":"0.00013460","REF_FRAME":"TEME","FILE":"3862592","EPOCH":"2023-03-16T21:09:28.129248","PERIOD":"95.920","NORAD_CAT_ID":"53476","RCS_SIZE":"LARGE","GP_ID":"228284549"},{"REV_AT_EPOCH":"3332","BSTAR":"0.00008855800000","PERIAPSIS":"562.028","SEMIMAJOR_AXIS":"6941.145","APOAPSIS":"563.991","OBJECT_NAME":"STARLINK-4412","TLE_LINE1":"1 53477U 22099N   23075.87416502  .00001079  00000-0  88558-4 0  9993","TIME_SYSTEM":"UTC","CLASSIFICATION_TYPE":"U","OBJECT_ID":"2022-099N","TLE_LINE2":"2 53477  97.6550 198.2858 0001414 108.0714 252.0665 15.01260732 33326","MEAN_ANOMALY":"252.0665","DECAY_DATE":null,"MEAN_ELEMENT_THEORY":"SGP4","ELEMENT_SET_NO":"999","MEAN_MOTION_DDOT":"0.0000000000000","CENTER_NAME":"EARTH","OBJECT_TYPE":"PAYLOAD","LAUNCH_DATE":"2022-08-12","RA_OF_ASC_NODE":"198.2858","MEAN_MOTION_DOT":"0.00001079","COUNTRY_CODE":"US","INCLINATION":"97.6550","SITE":"AFWTR","MEAN_MOTION":"15.01260732","EPHEMERIS_TYPE":"0","ECCENTRICITY":"0.00014140","ARG_OF_PERICENTER":"108.0714","REF_FRAME":"TEME","PERIOD":"95.919","EPOCH":"2023-03-16T20:58:47.857728","RCS_SIZE":"LARGE","NORAD_CAT_ID":"53477","GP_ID":"228284300","FILE":"3862592"},{"TLE_LINE2":"2 53478  97.6557 198.2904 0002262 122.2916 237.8528 15.01256316 32624","OBJECT_ID":"2022-099P","CLASSIFICATION_TYPE":"U","TIME_SYSTEM":"UTC","TLE_LINE1":"1 53478U 22099P   23075.87996773  .00002081  00000-0  16656-3 0  9990","APOAPSIS":"564.593","OBJECT_NAME":"STARLINK-4433","SEMIMAJOR_AXIS":"6941.158","PERIAPSIS":"561.453","BSTAR":"0.00016656000000","REV_AT_EPOCH":"3262","FILE":"3862592","NORAD_CAT_ID":"53478","RCS_SIZE":"LARGE","GP_ID":"228283549","PERIOD":"95.920","EPOCH":"2023-03-16T21:07:09.211872","EPHEMERIS_TYPE":"0","ECCENTRICITY":"0.00022620","REF_FRAME":"TEME","ARG_OF_PERICENTER":"122.2916","MEAN_MOTION":"15.01256316","SITE":"AFWTR","INCLINATION":"97.6557","COUNTRY_CODE":"US","MEAN_MOTION_DOT":"0.00002081","LAUNCH_DATE":"2022-08-12","RA_OF_ASC_NODE":"198.2904","OBJECT_TYPE":"PAYLOAD","MEAN_MOTION_DDOT":"0.0000000000000","CENTER_NAME":"EARTH","MEAN_ANOMALY":"237.8528","DECAY_DATE":null,"ELEMENT_SET_NO":"999","MEAN_ELEMENT_THEORY":"SGP4"},{"DECAY_DATE":null,"ELEMENT_SET_NO":"999","MEAN_ANOMALY":"236.5530","MEAN_ELEMENT_THEORY":"SGP4","MEAN_MOTION_DDOT":"0.0000000000000","CENTER_NAME":"EARTH","OBJECT_TYPE":"PAYLOAD","RA_OF_ASC_NODE":"198.2835","LAUNCH_DATE":"2022-08-12","MEAN_MOTION_DOT":"0.00008639","COUNTRY_CODE":"US","INCLINATION":"97.6538","SITE":"AFWTR","MEAN_MOTION":"15.01244728","EPHEMERIS_TYPE":"0","ECCENTRICITY":"0.00021590","ARG_OF_PERICENTER":"123.5901","REF_FRAME":"TEME","EPOCH":"2023-03-16T20:56:08.353824","PERIOD":"95.920","NORAD_CAT_ID":"53479","RCS_SIZE":"LARGE","GP_ID":"228283799","FILE":"3862592","REV_AT_EPOCH":"3262","BSTAR":"0.00067658000000","PERIAPSIS":"561.560","SEMIMAJOR_AXIS":"6941.194","APOAPSIS":"564.558","OBJECT_NAME":"STARLINK-4436","TLE_LINE1":"1 53479U 22099Q   23075.87231891  .00008639  00000-0  67658-3 0  9997","TIME_SYSTEM":"UTC","CLASSIFICATION_TYPE":"U","OBJECT_ID":"2022-099Q","TLE_LINE2":"2 53479  97.6538 198.2835 0002159 123.5901 236.5530 15.01244728 32623"},{"REV_AT_EPOCH":"3262","BSTAR":"-0.00012373000000","PERIAPSIS":"561.846","SEMIMAJOR_AXIS":"6941.177","OBJECT_NAME":"STARLINK-4442","APOAPSIS":"564.238","TLE_LINE1":"1 53480U 22099R   23075.87602143 -.00001647  00000-0 -12373-3 0  9999","TIME_SYSTEM":"UTC","CLASSIFICATION_TYPE":"U","OBJECT_ID":"2022-099R","TLE_LINE2":"2 53480  97.6540 198.2863 0001723 104.0110 256.1306 15.01250328 32623","DECAY_DATE":null,"ELEMENT_SET_NO":"999","MEAN_ELEMENT_THEORY":"SGP4","MEAN_ANOMALY":"256.1306","CENTER_NAME":"EARTH","MEAN_MOTION_DDOT":"0.0000000000000","OBJECT_TYPE":"PAYLOAD","LAUNCH_DATE":"2022-08-12","RA_OF_ASC_NODE":"198.2863","COUNTRY_CODE":"US","MEAN_MOTION_DOT":"-0.00001647","INCLINATION":"97.6540","SITE":"AFWTR","MEAN_MOTION":"15.01250328","ECCENTRICITY":"0.00017230","REF_FRAME":"TEME","ARG_OF_PERICENTER":"104.0110","EPHEMERIS_TYPE":"0","PERIOD":"95.920","EPOCH":"2023-03-16T21:01:28.251552","GP_ID":"228284050","NORAD_CAT_ID":"53480","RCS_SIZE":"LARGE","FILE":"3862592"},{"TLE_LINE2":"2 53481  97.6539 198.3460 0001724 107.2317 252.9096 15.01252804 32879","OBJECT_ID":"2022-099S","TIME_SYSTEM":"UTC","CLASSIFICATION_TYPE":"U","TLE_LINE1":"1 53481U 22099S   23075.93712252 -.00002355  00000-0 -17889-3 0  9994","OBJECT_NAME":"STARLINK-4302","APOAPSIS":"564.231","SEMIMAJOR_AXIS":"6941.169","PERIAPSIS":"561.837","BSTAR":"-0.00017889000000","REV_AT_EPOCH":"3287","FILE":"3862579","GP_ID":"228259977","RCS_SIZE":"LARGE","NORAD_CAT_ID":"53481","PERIOD":"95.920","EPOCH":"2023-03-16T22:29:27.385728","REF_FRAME":"TEME","ECCENTRICITY":"0.00017240","ARG_OF_PERICENTER":"107.2317","EPHEMERIS_TYPE":"0","MEAN_MOTION":"15.01252804","SITE":"AFWTR","INCLINATION":"97.6539","COUNTRY_CODE":"US","MEAN_MOTION_DOT":"-0.00002355","LAUNCH_DATE":"2022-08-12","RA_OF_ASC_NODE":"198.3460","OBJECT_TYPE":"PAYLOAD","CENTER_NAME":"EARTH","MEAN_MOTION_DDOT":"0.0000000000000","MEAN_ANOMALY":"252.9096","DECAY_DATE":null,"MEAN_ELEMENT_THEORY":"SGP4","ELEMENT_SET_NO":"999"}];
